{
  "links" : {
    "next" : "https://api.nasa.gov/neo/rest/v1/feed?start_date=2011-03-16&end_date=2011-03-16&detailed=true&api_key=t0TVs3DtDT2H8Oy2Zy8m2eVrNsAVKAexjcZXUckd",
    "prev" : "https://api.nasa.gov/neo/rest/v1/feed?start_date=2011-03-14&end_date=2011-03-14&detailed=true&api_key=t0TVs3DtDT2H8Oy2Zy8m2eVrNsAVKAexjcZXUckd",
    "self" : "https://api.nasa.gov/neo/rest/v1/feed?start_date=2011-03-15&end_date=2011-03-15&detailed=true&api_key=t0TVs3DtDT2H8Oy2Zy8m2eVrNsAVKAexjcZXUckd"
  },
  "element_count" : 5,
  "near_earth_objects" : {
    "2011-03-15" : [ {
      "links" : {
        "self" : "https://api.nasa.gov/neo/rest/v1/neo/3557822?api_key=t0TVs3DtDT2H8Oy2Zy8m2eVrNsAVKAexjcZXUckd"
      },
      "neo_reference_id" : "3557822",
      "name" : "(2011 CH71)",
      "nasa_jpl_url" : "http://ssd.jpl.nasa.gov/sbdb.cgi?sstr=3557822",
      "absolute_magnitude_h" : 18.6,
      "estimated_diameter" : {
        "kilometers" : {
          "estimated_diameter_min" : 0.5064714588,
          "estimated_diameter_max" : 1.1325046106
        },
        "meters" : {
          "estimated_diameter_min" : 506.4714588346,
          "estimated_diameter_max" : 1132.5046106177
        },
        "miles" : {
          "estimated_diameter_min" : 0.3147066768,
          "estimated_diameter_max" : 0.7037055224
        },
        "feet" : {
          "estimated_diameter_min" : 1661.651821003,
          "estimated_diameter_max" : 3715.566426699
        }
      },
      "is_potentially_hazardous_asteroid" : false,
      "close_approach_data" : [ {
        "close_approach_date" : "2011-03-15",
        "epoch_date_close_approach" : 1300172400000,
        "relative_velocity" : {
          "kilometers_per_second" : "13.4208890141",
          "kilometers_per_hour" : "48315.2004508313",
          "miles_per_hour" : "30021.1866356846"
        },
        "miss_distance" : {
          "astronomical" : "0.3040263371",
          "lunar" : "118.266242981",
          "kilometers" : "45481692",
          "miles" : "28261014"
        },
        "orbiting_body" : "Earth"
      } ],
      "orbital_data" : {
        "orbit_id" : "51",
        "orbit_determination_date" : "2017-04-06 08:54:25",
        "orbit_uncertainty" : "0",
        "minimum_orbit_intersection" : ".238722",
        "jupiter_tisserand_invariant" : "2.988",
        "epoch_osculation" : "2458000.5",
        "eccentricity" : ".6235581716515477",
        "semi_major_axis" : "2.649205184304277",
        "inclination" : "23.33962727805343",
        "ascending_node_longitude" : "145.9344996472878",
        "orbital_period" : "1574.968315443733",
        "perihelion_distance" : ".9972716432497004",
        "perihelion_argument" : "74.00451251350226",
        "aphelion_distance" : "4.301138725358853",
        "perihelion_time" : "2457256.631543226614",
        "mean_anomaly" : "170.0304963677767",
        "mean_motion" : ".2285760268761808",
        "equinox" : "J2000"
      }
    }, {
      "links" : {
        "self" : "https://api.nasa.gov/neo/rest/v1/neo/3685810?api_key=t0TVs3DtDT2H8Oy2Zy8m2eVrNsAVKAexjcZXUckd"
      },
      "neo_reference_id" : "3685810",
      "name" : "(2014 QB433)",
      "nasa_jpl_url" : "http://ssd.jpl.nasa.gov/sbdb.cgi?sstr=3685810",
      "absolute_magnitude_h" : 22.4,
      "estimated_diameter" : {
        "kilometers" : {
          "estimated_diameter_min" : 0.0880146521,
          "estimated_diameter_max" : 0.1968067451
        },
        "meters" : {
          "estimated_diameter_min" : 88.0146520901,
          "estimated_diameter_max" : 196.8067450894
        },
        "miles" : {
          "estimated_diameter_min" : 0.0546897524,
          "estimated_diameter_max" : 0.122290004
        },
        "feet" : {
          "estimated_diameter_min" : 288.7619911632,
          "estimated_diameter_max" : 645.6914415591
        }
      },
      "is_potentially_hazardous_asteroid" : false,
      "close_approach_data" : [ {
        "close_approach_date" : "2011-03-15",
        "epoch_date_close_approach" : 1300172400000,
        "relative_velocity" : {
          "kilometers_per_second" : "7.8884308216",
          "kilometers_per_hour" : "28398.3509578139",
          "miles_per_hour" : "17645.6309048705"
        },
        "miss_distance" : {
          "astronomical" : "0.3212373463",
          "lunar" : "124.9613342285",
          "kilometers" : "48056424",
          "miles" : "29860878"
        },
        "orbiting_body" : "Earth"
      } ],
      "orbital_data" : {
        "orbit_id" : "9",
        "orbit_determination_date" : "2017-04-06 08:38:54",
        "orbit_uncertainty" : "7",
        "minimum_orbit_intersection" : ".0926894",
        "jupiter_tisserand_invariant" : "5.160",
        "epoch_osculation" : "2458000.5",
        "eccentricity" : ".195221809307925",
        "semi_major_axis" : "1.226766135671541",
        "inclination" : "15.36821616623233",
        "ascending_node_longitude" : "160.5760195949304",
        "orbital_period" : "496.296366143933",
        "perihelion_distance" : ".9872746310680514",
        "perihelion_argument" : "292.8826159642313",
        "aphelion_distance" : "1.46625764027503",
        "perihelion_time" : "2458019.036901441629",
        "mean_anomaly" : "346.5538315929338",
        "mean_motion" : ".7253730322409712",
        "equinox" : "J2000"
      }
    } ]
  }
}